NORAD_CAT_ID,OBJECT_NAME,OBJECT_TYPE,EPOCH,MEAN_MOTION,ECCENTRICITY,INCLINATION,RA_OF_ASC_NODE,ARG_OF_PERICENTER,MEAN_ANOMALY,BSTAR,MEAN_MOTION_DOT,MEAN_MOTION_DDOT,TLE_LINE0,TLE_LINE1,TLE_LINE2,SEMIMAJOR_AXIS,PERIOD,APOGEE,PERIGEE,DECAYED
51109.0,STARLINK-3358,PAYLOAD,2024-07-10 04:11:20,15.08836359,0.0001409,53.2166,136.3118,90.839,269.2763,-2.4392e-05,-6.76e-06,0.0,0 STARLINK-3358,1 51109U 22005F   24192.17454853 -.00000676  00000-0 -24392-4 0  9995,2 51109  53.2166 136.3118 0001409  90.8390 269.2763 15.08836359138271,6917.892,95.438,540.731,538.782,0.0
51109.0,STARLINK-3358,PAYLOAD,2024-07-10 13:43:39,15.08845338,0.0001431,53.2169,134.5285,89.5821,270.5335,3.1787e-05,2.18e-06,0.0,0 STARLINK-3358,1 51109U 22005F   24192.57198102  .00000218  00000-0  31787-4 0  9997,2 51109  53.2169 134.5285 0001431  89.5821 270.5335 15.08845338136992,6917.864,95.437,540.719,538.739,0.0
51109.0,STARLINK-3358,PAYLOAD,2024-07-11 05:37:30,15.08846028,0.0001536,53.2178,131.5524,100.4022,259.7143,6.5525e-05,7.55e-06,0.0,0 STARLINK-3358,1 51109U 22005F   24193.23437917  .00000755  00000-0  65525-4 0  9994,2 51109  53.2178 131.5524 0001536 100.4022 259.7143 15.08846028137092,6917.862,95.437,540.79,538.664,0.0
51109.0,STARLINK-3358,PAYLOAD,2024-07-12 02:17:31,15.08834819,0.0001443,53.2163,127.6871,101.2133,258.9021,6.1424e-05,6.9e-06,0.0,0 STARLINK-3358,1 51109U 22005F   24194.09550537  .00000690  00000-0  61424-4 0  9995,2 51109  53.2163 127.6871 0001443 101.2133 258.9021 15.08834819138560,6917.896,95.438,540.759,538.763,0.0
51109.0,STARLINK-3358,PAYLOAD,2024-07-12 22:57:32,15.08839462,0.0001463,53.217,123.8213,105.847,254.2683,1.0562e-05,-1.2e-06,0.0,0 STARLINK-3358,1 51109U 22005F   24194.95662520 -.00000120  00000-0  10562-4 0  9992,2 51109  53.2170 123.8213 0001463 105.8470 254.2683 15.08839462137350,6917.882,95.438,540.759,538.735,0.0
51109.0,STARLINK-3358,PAYLOAD,2024-07-13 05:19:04,15.08848858,0.0001288,53.2163,122.6358,100.788,259.3258,-2.1453e-05,-6.29e-06,0.0,0 STARLINK-3358,1 51109U 22005F   24195.22158075 -.00000629  00000-0 -21453-4 0  9994,2 51109  53.2163 122.6358 0001288 100.7880 259.3258 15.08848858138739,6917.853,95.437,540.609,538.827,0.0
51109.0,STARLINK-3358,PAYLOAD,2024-07-13 22:48:19,15.08836907,0.0001364,53.2173,119.3671,100.8474,259.2672,5.3893e-05,5.7e-06,0.0,0 STARLINK-3358,1 51109U 22005F   24195.95022721  .00000570  00000-0  53893-4 0  9998,2 51109  53.2173 119.3671 0001364 100.8474 259.2672 15.08836907137501,6917.89,95.438,540.698,538.811,0.0
51109.0,STARLINK-3358,PAYLOAD,2024-07-14 01:59:05,15.08836882,0.0001353,53.2173,118.7723,100.5586,259.5559,5.0687e-05,5.19e-06,0.0,0 STARLINK-3358,1 51109U 22005F   24196.08270758  .00000519  00000-0  50687-4 0  9999,2 51109  53.2173 118.7723 0001353 100.5586 259.5559 15.08836882138860,6917.89,95.438,540.691,538.819,0.0
51109.0,STARLINK-3358,PAYLOAD,2024-07-14 11:31:23,15.08844565,0.0001425,53.2178,116.9873,100.7046,259.4106,0.00022308,3.265e-05,0.0,0 STARLINK-3358,1 51109U 22005F   24196.48013787  .00003265  00000-0  22308-3 0  9999,2 51109  53.2178 116.9873 0001425 100.7046 259.4106 15.08844565138925,6917.866,95.437,540.717,538.746,0.0
51109.0,STARLINK-3358,PAYLOAD,2024-07-14 19:28:21,15.08823777,0.0001203,53.217,115.4972,91.2469,268.8661,-9.3152e-05,-1.769e-05,0.0,0 STARLINK-3358,1 51109U 22005F   24196.81136015 -.00001769  00000-0 -93152-4 0  9991,2 51109  53.2170 115.4972 0001203  91.2469 268.8661 15.08823777138975,6917.93,95.439,540.627,538.963,0.0
51109.0,STARLINK-3358,PAYLOAD,2024-07-14 22:39:07,15.08829364,0.0001341,53.2171,114.9031,101.6681,258.4461,-4.8331e-05,-1.057e-05,0.0,0 STARLINK-3358,1 51109U 22005F   24196.94383593 -.00001057  00000-0 -48331-4 0  9999,2 51109  53.2171 114.9031 0001341 101.6681 258.4461 15.08829364137656,6917.913,95.438,540.706,538.85,0.0
51109.0,STARLINK-3358,PAYLOAD,2024-07-15 01:49:53,15.08834774,0.0001495,53.2177,114.3123,112.2557,247.8593,-1.4595e-06,-3.11e-06,0.0,0 STARLINK-3358,1 51109U 22005F   24197.07631454 -.00000311  00000-0 -14595-5 0  9994,2 51109  53.2177 114.3123 0001495 112.2557 247.8593 15.08834774139019,6917.896,95.438,540.796,538.727,0.0
51109.0,STARLINK-3358,PAYLOAD,2024-07-15 11:22:11,15.08848336,0.0001175,53.2173,112.5221,78.1195,281.9928,0.00012935,1.772e-05,0.0,0 STARLINK-3358,1 51109U 22005F   24197.47373903  .00001772  00000-0  12935-3 0  9994,2 51109  53.2173 112.5221 0001175  78.1195 281.9928 15.08848336139073,6917.855,95.437,540.533,538.907,0.0
51109.0,STARLINK-3358,PAYLOAD,2024-07-15 22:29:55,15.08826402,0.0001107,53.2169,110.4408,79.0739,281.0378,-0.00014386,-2.576e-05,0.0,0 STARLINK-3358,1 51109U 22005F   24197.93744357 -.00002576  00000-0 -14386-3 0  9997,2 51109  53.2169 110.4408 0001107  79.0739 281.0378 15.08826402137800,6917.922,95.438,540.553,539.021,0.0
51109.0,STARLINK-3358,PAYLOAD,2024-07-16 01:40:41,15.0882816,0.0001468,53.2176,109.8493,88.5003,271.6157,-5.286e-05,-1.129e-05,0.0,0 STARLINK-3358,1 51109U 22005F   24198.06992151 -.00001129  00000-0 -52860-4 0  9992,2 51109  53.2176 109.8493 0001468  88.5003 271.6157 15.08828160139167,6917.917,95.438,540.797,538.766,0.0
51109.0,STARLINK-3358,PAYLOAD,2024-07-16 22:20:40,15.08842004,0.000149,53.218,105.9872,104.9555,255.1602,0.00019667,2.844e-05,0.0,0 STARLINK-3358,1 51109U 22005F   24198.93102620  .00002844  00000-0  19667-3 0  9992,2 51109  53.2180 105.9872 0001490 104.9555 255.1602 15.08842004137950,6917.874,95.437,540.77,538.709,0.0
51109.0,STARLINK-3358,PAYLOAD,2024-07-17 03:06:49,15.08853415,0.0001304,53.2164,105.0918,92.3237,267.7904,0.00032053,4.819e-05,0.0,0 STARLINK-3358,1 51109U 22005F   24199.12974395  .00004819  00000-0  32053-3 0  9998,2 51109  53.2164 105.0918 0001304  92.3237 267.7904 15.08853415139320,6917.839,95.437,540.606,538.802,0.0
51109.0,STARLINK-3358,PAYLOAD,2024-07-17 11:03:45,15.0886995,0.0001419,53.2169,103.5989,74.1424,285.9725,0.00060885,9.423e-05,0.0,0 STARLINK-3358,1 51109U 22005F   24199.46093764  .00009423  00000-0  60885-3 0  9997,2 51109  53.2169 103.5989 0001419  74.1424 285.9725 15.08869950138030,6917.789,95.436,540.635,538.672,0.0
51109.0,STARLINK-3358,PAYLOAD,2024-07-17 22:11:28,15.08829205,0.0001422,53.2166,101.5201,83.5125,276.6029,-0.00020859,-3.605e-05,0.0,0 STARLINK-3358,1 51109U 22005F   24199.92463150 -.00003605  00000-0 -20859-3 0  9993,2 51109  53.2166 101.5201 0001422  83.5125 276.6029 15.08829205138109,6917.913,95.438,540.762,538.795,0.0
51109.0,STARLINK-3358,PAYLOAD,2024-07-18 02:57:37,15.08840471,0.0001332,53.2162,100.6247,94.6028,265.5117,2.1742e-05,5.8e-07,0.0,0 STARLINK-3358,1 51109U 22005F   24200.12334857  .00000058  00000-0  21742-4 0  9999,2 51109  53.2162 100.6247 0001332  94.6028 265.5117 15.08840471139474,6917.879,95.438,540.665,538.822,0.0
51109.0,STARLINK-3358,PAYLOAD,2024-07-18 10:54:33,15.08843778,0.0001364,53.2169,99.1418,85.303,274.8118,0.00088979,0.00013903,0.0,0 STARLINK-3358,1 51109U 22005F   24200.45454983  .00013903  00000-0  88979-3 0  9995,2 51109  53.2169  99.1418 0001364  85.3030 274.8118 15.08843778138182,6917.869,95.437,540.677,538.79,0.0
51109.0,STARLINK-3358,PAYLOAD,2024-07-18 20:26:52,15.08835567,0.0001384,53.2166,97.3565,98.1041,262.0108,0.00065894,0.00010213,0.0,0 STARLINK-3358,1 51109U 22005F   24200.85199565  .00010213  00000-0  65894-3 0  9993,2 51109  53.2166  97.3565 0001384  98.1041 262.0108 15.08835567139588,6917.894,95.438,540.716,538.802,0.0
51109.0,STARLINK-3358,PAYLOAD,2024-07-18 22:02:15,15.08831853,0.0001416,53.2169,97.0609,97.973,262.1422,0.0010058,0.00015752,0.0,0 STARLINK-3358,1 51109U 22005F   24200.91823756  .00015752  00000-0  10058-2 0  9990,2 51109  53.2169  97.0609 0001416  97.9730 262.1422 15.08831853138252,6917.905,95.438,540.75,538.791,0.0
51109.0,STARLINK-3358,PAYLOAD,2024-07-19 02:48:25,15.08841482,0.0001337,53.2172,96.1678,97.7004,262.414,0.0018332,0.00029009,0.0,0 STARLINK-3358,1 51109U 22005F   24201.11695792  .00029009  00000-0  18332-2 0  9993,2 51109  53.2172  96.1678 0001337  97.7004 262.4140 15.08841482138288,6917.876,95.437,540.666,538.816,0.0
51109.0,STARLINK-3358,PAYLOAD,2024-07-19 20:17:39,15.08852275,0.0001556,53.2171,92.8953,107.6242,252.492,0.0011887,0.00018687,0.0,0 STARLINK-3358,1 51109U 22005F   24201.84559846  .00018687  00000-0  11887-2 0  9990,2 51109  53.2171  92.8953 0001556 107.6242 252.4920 15.08852275139732,6917.843,95.437,540.784,538.631,0.0
51109.0,STARLINK-3358,PAYLOAD,2024-07-19 21:53:02,15.08850311,0.0001638,53.2171,92.5982,123.8132,236.3016,0.0010339,0.00016209,0.0,0 STARLINK-3358,1 51109U 22005F   24201.91183739  .00016209  00000-0  10339-2 0  9991,2 51109  53.2171  92.5982 0001638 123.8132 236.3016 15.08850311138409,6917.849,95.437,540.847,538.581,0.0
51109.0,STARLINK-3358,PAYLOAD,2024-07-20 20:08:26,15.08848753,0.0001271,53.2166,88.4365,104.1347,255.9786,0.00057162,8.823e-05,0.0,0 STARLINK-3358,1 51109U 22005F   24202.83919812  .00008823  00000-0  57162-3 0  9991,2 51109  53.2166  88.4365 0001271 104.1347 255.9786 15.08848753139886,6917.854,95.437,540.598,538.839,0.0
51109.0,STARLINK-3358,PAYLOAD,2024-07-20 23:19:13,15.08823368,9.49e-05,53.2166,87.8395,73.8321,286.2776,-0.00029919,-5.044e-05,0.0,0 STARLINK-3358,1 51109U 22005F   24202.97168096 -.00005044  00000-0 -29919-3 0  9999,2 51109  53.2166  87.8395 0000949  73.8321 286.2776 15.08823368138562,6917.931,95.439,540.453,539.14,0.0
51109.0,STARLINK-3358,PAYLOAD,2024-07-21 02:29:59,15.08817749,0.0001021,53.2161,87.2474,70.693,289.4172,-0.00039255,-6.526e-05,0.0,0 STARLINK-3358,1 51109U 22005F   24203.10416435 -.00006526  00000-0 -39255-3 0  9998,2 51109  53.2161  87.2474 0001021  70.6930 289.4172 15.08817749139924,6917.948,95.439,540.52,539.107,0.0
51109.0,STARLINK-3358,PAYLOAD,2024-07-21 19:59:14,15.08839165,8.61e-05,53.2162,83.9788,82.7384,277.3706,0.00038564,5.855e-05,0.0,0 STARLINK-3358,1 51109U 22005F   24203.83280628  .00005855  00000-0  38564-3 0  9995,2 51109  53.2162  83.9788 0000861  82.7384 277.3706 15.08839165140033,6917.883,95.438,540.344,539.152,0.0
